{
  "type": "FeatureCollection",
  "features": [
    {
      "type": "Feature",
      "properties": {
        "norad_id": 67039,
        "name": "STARLINK-35705",
        "group": "last-30-days",
        "lat": -42.83344743870269,
        "lon": 17.245571778139265,
        "alt_km": 366.66028473289134,
        "timestamp": "2025-12-25T22:42:15.711691+00:00",
        "meta_object_name": "STARLINK-35705",
        "meta_object_id": "2025-294K",
        "meta_epoch": "2025-12-25T18:00:02.000160",
        "meta_mean_motion": 15.68873049,
        "meta_eccentricity": 0.0001499,
        "meta_inclination": 42.9997,
        "meta_ra_of_asc_node": 102.6459,
        "meta_arg_of_pericenter": 278.9668,
        "meta_mean_anomaly": 327.2677,
        "meta_ephemeris_type": 0,
        "meta_classification_type": "U",
        "meta_norad_cat_id": 67039,
        "meta_element_set_no": 999,
        "meta_rev_at_epoch": 220,
        "meta_bstar": -0.017995,
        "meta_mean_motion_dot": -0.01888777,
        "meta_mean_motion_ddot": 0,
        "tle_line1": "1 67039U 25294K   25359.75002315 -.01888777  00000+0 -17995-1 0  9993",
        "tle_line2": "2 67039  42.9997 102.6459 0001499 278.9668 327.2677 15.68873049  2202"
      },
      "geometry": {
        "type": "Point",
        "coordinates": [
          17.245571778139265,
          -42.83344743870269
        ]
      }
    },
    {
      "type": "Feature",
      "properties": {
        "norad_id": 67040,
        "name": "STARLINK-35786",
        "group": "last-30-days",
        "lat": -42.93934380598305,
        "lon": 14.496689144493681,
        "alt_km": 366.75512972064917,
        "timestamp": "2025-12-25T22:42:15.711704+00:00",
        "meta_object_name": "STARLINK-35786",
        "meta_object_id": "2025-294L",
        "meta_epoch": "2025-12-25T18:00:02.000160",
        "meta_mean_motion": 15.68889597,
        "meta_eccentricity": 0.000132,
        "meta_inclination": 42.9999,
        "meta_ra_of_asc_node": 102.651,
        "meta_arg_of_pericenter": 277.0953,
        "meta_mean_anomaly": 327.1057,
        "meta_ephemeris_type": 0,
        "meta_classification_type": "U",
        "meta_norad_cat_id": 67040,
        "meta_element_set_no": 999,
        "meta_rev_at_epoch": 220,
        "meta_bstar": -0.018122,
        "meta_mean_motion_dot": -0.01901661,
        "meta_mean_motion_ddot": 0,
        "tle_line1": "1 67040U 25294L   25359.75002315 -.01901661  00000+0 -18122-1 0  9996",
        "tle_line2": "2 67040  42.9999 102.6510 0001320 277.0953 327.1057 15.68889597  2200"
      },
      "geometry": {
        "type": "Point",
        "coordinates": [
          14.496689144493681,
          -42.93934380598305
        ]
      }
    },
    {
      "type": "Feature",
      "properties": {
        "norad_id": 67041,
        "name": "STARLINK-35765",
        "group": "last-30-days",
        "lat": -42.665026723056464,
        "lon": 19.93905961261573,
        "alt_km": 366.6707471022528,
        "timestamp": "2025-12-25T22:42:15.711713+00:00",
        "meta_object_name": "STARLINK-35765",
        "meta_object_id": "2025-294M",
        "meta_epoch": "2025-12-25T18:00:02.000160",
        "meta_mean_motion": 15.68865143,
        "meta_eccentricity": 0.0001493,
        "meta_inclination": 42.9995,
        "meta_ra_of_asc_node": 102.6407,
        "meta_arg_of_pericenter": 271.0348,
        "meta_mean_anomaly": 337.1932,
        "meta_ephemeris_type": 0,
        "meta_classification_type": "U",
        "meta_norad_cat_id": 67041,
        "meta_element_set_no": 999,
        "meta_rev_at_epoch": 220,
        "meta_bstar": -0.017964,
        "meta_mean_motion_dot": -0.01885317,
        "meta_mean_motion_ddot": 0,
        "tle_line1": "1 67041U 25294M   25359.75002315 -.01885317  00000+0 -17964-1 0  9999",
        "tle_line2": "2 67041  42.9995 102.6407 0001493 271.0348 337.1932 15.68865143  2209"
      },
      "geometry": {
        "type": "Point",
        "coordinates": [
          19.93905961261573,
          -42.665026723056464
        ]
      }
    },
    {
      "type": "Feature",
      "properties": {
        "norad_id": 67042,
        "name": "STARLINK-35773",
        "group": "last-30-days",
        "lat": -42.42241721753366,
        "lon": 22.729935995297627,
        "alt_km": 366.64035256034276,
        "timestamp": "2025-12-25T22:42:15.711725+00:00",
        "meta_object_name": "STARLINK-35773",
        "meta_object_id": "2025-294N",
        "meta_epoch": "2025-12-25T18:00:02.000160",
        "meta_mean_motion": 15.6884862,
        "meta_eccentricity": 0.0001582,
        "meta_inclination": 42.9994,
        "meta_ra_of_asc_node": 102.6354,
        "meta_arg_of_pericenter": 280.1349,
        "meta_mean_anomaly": 330.1839,
        "meta_ephemeris_type": 0,
        "meta_classification_type": "U",
        "meta_norad_cat_id": 67042,
        "meta_element_set_no": 999,
        "meta_rev_at_epoch": 239,
        "meta_bstar": -0.017909,
        "meta_mean_motion_dot": -0.01879089,
        "meta_mean_motion_ddot": 0,
        "tle_line1": "1 67042U 25294N   25359.75002315 -.01879089  00000+0 -17909-1 0  9998",
        "tle_line2": "2 67042  42.9994 102.6354 0001582 280.1349 330.1839 15.68848620  2391"
      },
      "geometry": {
        "type": "Point",
        "coordinates": [
          22.729935995297627,
          -42.42241721753366
        ]
      }
    },
    {
      "type": "Feature",
      "properties": {
        "norad_id": 67043,
        "name": "STARLINK-35901",
        "group": "last-30-days",
        "lat": -42.11387598854803,
        "lon": 25.48713791818807,
        "alt_km": 366.700681168506,
        "timestamp": "2025-12-25T22:42:15.711737+00:00",
        "meta_object_name": "STARLINK-35901",
        "meta_object_id": "2025-294P",
        "meta_epoch": "2025-12-25T18:00:02.000160",
        "meta_mean_motion": 15.68850719,
        "meta_eccentricity": 0.0001488,
        "meta_inclination": 42.9996,
        "meta_ra_of_asc_node": 102.6302,
        "meta_arg_of_pericenter": 278.4806,
        "meta_mean_anomaly": 333.9082,
        "meta_ephemeris_type": 0,
        "meta_classification_type": "U",
        "meta_norad_cat_id": 67043,
        "meta_element_set_no": 999,
        "meta_rev_at_epoch": 239,
        "meta_bstar": -0.018048,
        "meta_mean_motion_dot": -0.01892187,
        "meta_mean_motion_ddot": 0,
        "tle_line1": "1 67043U 25294P   25359.75002315 -.01892187  00000+0 -18048-1 0  9998",
        "tle_line2": "2 67043  42.9996 102.6302 0001488 278.4806 333.9082 15.68850719  2393"
      },
      "geometry": {
        "type": "Point",
        "coordinates": [
          25.48713791818807,
          -42.11387598854803
        ]
      }
    },
    {
      "type": "Feature",
      "properties": {
        "norad_id": 67044,
        "name": "STARLINK-35884",
        "group": "last-30-days",
        "lat": -41.74582499798575,
        "lon": 28.174239529598356,
        "alt_km": 366.70047085986516,
        "timestamp": "2025-12-25T22:42:15.711747+00:00",
        "meta_object_name": "STARLINK-35884",
        "meta_object_id": "2025-294Q",
        "meta_epoch": "2025-12-25T18:00:02.000160",
        "meta_mean_motion": 15.68842786,
        "meta_eccentricity": 0.0001503,
        "meta_inclination": 42.9998,
        "meta_ra_of_asc_node": 102.625,
        "meta_arg_of_pericenter": 277.3134,
        "meta_mean_anomaly": 337.1196,
        "meta_ephemeris_type": 0,
        "meta_classification_type": "U",
        "meta_norad_cat_id": 67044,
        "meta_element_set_no": 999,
        "meta_rev_at_epoch": 239,
        "meta_bstar": -0.018056,
        "meta_mean_motion_dot": -0.01892323,
        "meta_mean_motion_ddot": 0,
        "tle_line1": "1 67044U 25294Q   25359.75002315 -.01892323  00000+0 -18056-1 0  9990",
        "tle_line2": "2 67044  42.9998 102.6250 0001503 277.3134 337.1196 15.68842786  2395"
      },
      "geometry": {
        "type": "Point",
        "coordinates": [
          28.174239529598356,
          -41.74582499798575
        ]
      }
    },
    {
      "type": "Feature",
      "properties": {
        "norad_id": 67045,
        "name": "STARLINK-35891",
        "group": "last-30-days",
        "lat": -41.26951349053157,
        "lon": 31.089012356992665,
        "alt_km": 366.81893171280535,
        "timestamp": "2025-12-25T22:42:15.711757+00:00",
        "meta_object_name": "STARLINK-35891",
        "meta_object_id": "2025-294R",
        "meta_epoch": "2025-12-25T18:00:02.000160",
        "meta_mean_motion": 15.68828004,
        "meta_eccentricity": 0.000139,
        "meta_inclination": 42.9997,
        "meta_ra_of_asc_node": 102.6197,
        "meta_arg_of_pericenter": 276.5306,
        "meta_mean_anomaly": 340.1552,
        "meta_ephemeris_type": 0,
        "meta_classification_type": "U",
        "meta_norad_cat_id": 67045,
        "meta_element_set_no": 999,
        "meta_rev_at_epoch": 231,
        "meta_bstar": -0.018181,
        "meta_mean_motion_dot": -0.01902882,
        "meta_mean_motion_ddot": 0,
        "tle_line1": "1 67045U 25294R   25359.75002315 -.01902882  00000+0 -18181-1 0  9992",
        "tle_line2": "2 67045  42.9997 102.6197 0001390 276.5306 340.1552 15.68828004  2310"
      },
      "geometry": {
        "type": "Point",
        "coordinates": [
          31.089012356992665,
          -41.26951349053157
        ]
      }
    }
  ]
}